OPTICUBE 04             
1 41851U 16067D   18243.20305314  .00000638  00000-0  61193-4 0  9996
2 41851  97.9233 332.2824 0007204 276.5488  83.4912 14.96699559 98312
AEROCUBE 8D             
1 41852U 16067E   18243.24827802  .00000295  00000-0  31292-4 0  9998
2 41852  97.9237 332.1647 0008350 275.0862  84.9406 14.96534738 98302
AEROCUBE 8C             
1 41853U 16067F   18243.19737904  .00000776  00000-0  73669-4 0  9994
2 41853  97.9243 332.0710 0008412 277.1093  82.9172 14.96502238 98294
PROMETHEUS 2-1          
1 41854U 16067G   18243.26492025  .00000946  00000-0  88276-4 0  9994
2 41854  97.9249 332.1676 0008688 276.1543  83.8688 14.96628491 98301
PROMETHEUS 2-3          
1 41855U 16067H   18243.20078578  .00000956  00000-0  89146-4 0  9990
2 41855  97.9252 332.1089 0008844 277.1059  82.9156 14.96627801 98293
ITF-2                   
1 41932U 98067KU  18243.11889783  .00038973  00000-0  19120-3 0  9998
2 41932  51.6304 313.2448 0002161  78.0980 282.0265 15.81821443 92606
WASEDA-SAT3             
1 41933U 98067KV  18243.15012219  .00137199  18621-4  33572-3 0  9994
2 41933  51.6297 300.4484 0005059  18.9923 341.1273 15.95866077 92776
AOBA-VELOX 3            
1 41935U 98067KX  18242.56381741  .00072077  00000-0  24414-3 0  9995
2 41935  51.6327 308.6992 0003202  30.7362 329.3831 15.89246273 92718
INS-1B                  
1 41954U 17008G   18243.21593921  .00001051  00000-0  47409-4 0  9994
2 41954  97.4394 306.5335 0011155  90.9110 269.3405 15.23194068 85426
BGUSAT                  
1 41999U 17008BD  18242.71481690  .00001794  00000-0  75005-4 0  9993
2 41999  97.4443 307.3253 0010193 106.9703 253.2652 15.24881874 84788
DIDO-2                  
1 42000U 17008BE  18242.75534212  .00001063  00000-0  47702-4 0  9992
2 42000  97.4416 306.5442 0010292 107.7062 252.5299 15.23336442 84751
PEASSS                  
1 42015U 17008BV  18243.21869046  .00000933  00000-0  41254-4 0  9997
2 42015  97.4410 307.5521 0008175 111.4329 248.7781 15.24175382 85349
AL-FARABI 1             
1 42016U 17008BW  18242.73054993  .00001231  00000-0  52792-4 0  9992
2 42016  97.4419 307.3222 0008047 112.9429 247.2658 15.24629737 85402
NAYIF-1 (EO-88)         
1 42017U 17008BX  18242.85486046  .00001255  00000-0  53721-4 0  9993
2 42017  97.4417 307.4531 0008033 112.6815 247.5273 15.24655119 85449
HAVELSAT                
1 42700U 98067LH  18243.23225661  .00031010  00000-0  20303-3 0  9994
2 42700  51.6329 329.8559 0001397 184.6347 175.4640 15.75504159 73835
CXBN-2                  
1 42704U 98067LM  18243.21168166  .00029617  00000-0  19822-3 0  9996
2 42704  51.6346 331.2459 0001734  42.9175 317.1960 15.75022914 73737
ICECUBE                 
1 42705U 98067LN  18243.22153016  .00165779  21609-4  46058-3 0  9999
2 42705  51.6452 316.3531 0004326  21.3693 338.7494 15.93425551 73990
PHOENIX                 
1 42706U 98067LP  18243.25117417  .00020412  00000-0  15573-3 0  9998
2 42706  51.6352 333.0185 0001195  56.3183 303.7929 15.72194468 73705
X-CUBESAT               
1 42707U 98067LQ  18243.24126112  .00034061  00000-0  21302-3 0  9992
2 42707  51.6329 329.0686 0001543  37.3396 322.7711 15.76502382 73749
QBEE50-LTU-OC           
1 42708U 98067LR  18243.23647983  .00030655  00000-0  20280-3 0  9995
2 42708  51.6342 330.6403 0001470  19.8269 340.2788 15.75271593 73681
ALTAIR PATHFINDER       
1 42711U 98067LS  18242.88817881  .00012142  00000-0  12008-3 0  9995
2 42711  51.6366 344.8880 0003496  92.7427 267.3969 15.66323987 73172
SHARC                   
1 42712U 98067LT  18243.18628781  .00023621  00000-0  21672-3 0  9990
2 42712  51.6376 344.6968 0001659  76.8498 283.2683 15.67614030 73442
ZA-AEROSAT              
1 42713U 98067LU  18243.21938333  .00019628  00000-0  15937-3 0  9991
2 42713  51.6350 336.5467 0002072  66.6120 293.5095 15.70731277 73312
LINK                    
1 42714U 98067LV  18242.59214124  .00203630  27586-4  48057-3 0  9996
2 42714  51.6192 318.4074 0007341   0.6481 359.4536 15.96351647 73603
CSUNSAT 1               
1 42715U 98067LW  18243.26526619  .00022108  00000-0  17180-3 0  9997
2 42715  51.6348 335.3733 0003151  76.3008 283.8341 15.71695667 73337
SPACECUBE               
1 42717U 98067LY  18243.26950401  .00029561  00000-0  19742-3 0  9995
2 42717  51.6308 330.8122 0000358 181.2363 178.8635 15.75073073 72763
HOOPOE                  
1 42718U 98067LZ  18243.26689548  .00047836  00000-0  26017-3 0  9995
2 42718  51.6288 326.2608 0000988  18.6856 341.4181 15.79475880 72825
NJUST-1                 
1 42722U 98067MB  18243.26546536  .00018592  00000-0  15847-3 0  9995
2 42722  51.6358 338.3878 0003838 149.5016 210.6205 15.69593461 72368
UNSW-ECO                
1 42723U 98067MC  18243.28048562  .00054921  00000-0  27733-3 0  9997
2 42723  51.6384 325.6854 0000602  84.2059 275.9011 15.81044778 72511
LILACSAT-1              
1 42725U 98067ME  18243.23167265  .00027582  00000-0  20117-3 0  9998
2 42725  51.6361 334.3898 0002287 144.1401 215.9752 15.73057464 72312
NSIGHT-1                
1 42726U 98067MF  18243.10035083  .00008684  00000-0  10056-3 0  9990
2 42726  51.6397 349.3911 0004802 149.1354 210.9923 15.62723370 72118
SNUSAT-1                
1 42727U 98067MG  18243.24465060  .00026041  00000-0  19021-3 0  9996
2 42727  51.6335 334.4053 0004344 108.9659 251.1810 15.73051215 72289
I-INSPIRE II            
1 42731U 98067ML  18243.23889148  .00053590  00000-0  25963-3 0  9998
2 42731  51.6347 324.5519 0003467  51.5319 308.5994 15.81945688 72303
POLYITAN-2-SAU          
1 42732U 98067MM  18242.87747778  .00031003  00000-0  19685-3 0  9999
2 42732  51.6330 331.9499 0003857  80.6303 279.5133 15.76202254 72170
SNUSAT-1B               
1 42733U 98067MN  18243.11243610  .00028142  00000-0  19652-3 0  9998
2 42733  51.6346 333.5535 0004019  91.2428 268.9032 15.74059756 72179
EXALTA-1                
1 42734U 98067MP  18243.23738639  .00067259  00000-0  30238-3 0  9997
2 42734  51.6270 323.6903 0001939  72.8784 287.2432 15.83456721 72264
BEEAGLESAT              
1 42736U 98067MR  18243.25167548  .00022969  00000-0  17545-3 0  9991
2 42736  51.6343 335.2413 0003476 145.6813 214.4411 15.72077389 72224
UCLSAT                  
1 42765U 17036A   18242.83285623  .00001323  00000-0  60885-4 0  9995
2 42765  97.3943 301.4586 0012127 166.9750 193.1801 15.22020431 66066
LITUANICASAT-2          
1 42768U 17036D   18243.10841142  .00001710  00000-0  78521-4 0  9999
2 42768  97.3957 301.2993 0016400 158.2550 201.9385 15.21645412 65957
AALTO-1                 
1 42775U 17036L   18242.38329986  .00000891  00000-0  43356-4 0  9990
2 42775  97.3936 300.3726 0014782 158.6635 201.5220 15.20861438 65776
URSA MAIOR              
1 42776U 17036M   18243.22106269  .00000874  00000-0  42502-4 0  9995
2 42776  97.3942 301.2620 0014722 155.9525 204.2401 15.20953083 65903
COMPASS 2               
1 42777U 17036N   18243.16607184  .00001443  00000-0  66225-4 0  9992
2 42777  97.3961 301.7241 0013599 158.4222 201.7590 15.21957235 65918
DIAMOND RED             
1 42783U 17036U   18242.58856963  .00001092  00000-0  51377-4 0  9997
2 42783  97.3945 301.0307 0012707 168.3305 191.8228 15.21601845 65825
PEGASUS                 
1 42784U 17036V   18242.15651057  .00001350  00000-0  62409-4 0  9993
2 42784  97.3947 300.7010 0012573 169.7196 190.4300 15.21820774 65762
DIAMOND GREEN           
1 42785U 17036W   18242.71886095  .00001076  00000-0  50651-4 0  9999
2 42785  97.3946 301.1742 0012602 168.3976 191.7553 15.21603852 65831
DIAMOND BLUE            
1 42786U 17036X   18243.11260857  .00001016  00000-0  47995-4 0  9998
2 42786  97.3945 301.5609 0012469 167.1796 192.9759 15.21604646 65894
NUDTSAT                 
1 42787U 17036Y   18242.70244922  .00001886  00000-0  84360-4 0  9990
2 42787  97.3955 301.5148 0012214 167.0131 193.1423 15.22468468 65706
SUCHAI                  
1 42788U 17036Z   18243.15192567  .00001070  00000-0  49682-4 0  9991
2 42788  97.3942 301.8112 0012337 165.7882 194.3704 15.22119887 65995
SKCUBE                  
1 42789U 17036AA  18242.16734794  .00001485  00000-0  67880-4 0  9996
2 42789  97.3946 300.8304 0012046 169.1540 190.9958 15.22066857 65764
VZLUSAT-1               
1 42790U 17036AB  18242.09933476  .00001696  00000-0  76160-4 0  9993
2 42790  97.3948 300.9287 0011737 168.9570 191.1926 15.22484374 65761
ROBUSTA-1B              
1 42792U 17036AD  18242.58905041  .00001154  00000-0  53176-4 0  9997
2 42792  97.3941 301.3230 0011685 168.1485 192.0029 15.22221230 65841
CICERO 6                
1 42793U 17036AE  18242.59230581  .00001090  00000-0  50712-4 0  9991
2 42793  97.3936 301.2941 0010747 168.9444 191.2030 15.22012712 65919
D-SAT                   
1 42794U 17036AF  18243.14607816  .00000304  00000-0  31792-4 0  9997
2 42794  97.5845 294.9420 0127787  33.4370 327.4835 14.90919964 64899
TOKI                    
1 42820U 98067MU  18242.47604279  .00023400  00000-0  18671-3 0  9997
2 42820  51.6348 342.0757 0002586  59.2481 300.8771 15.71024098 65546
MAZAALAI (NUMSAT-1)     
1 42822U 98067MW  18243.22464835  .00021233  00000-0  17231-3 0  9998
2 42822  51.6350 338.8341 0002533  66.1661 293.9602 15.70684469 65618
BRAC ONNESHA            
1 42823U 98067MX  18242.45140295  .00024177  00000-0  19435-3 0  9992
2 42823  51.6359 342.6931 0003929  96.3788 263.7657 15.70819449 65513
NIGERIAEDUSAT-1         
1 42824U 98067MY  18242.42323181  .00023344  00000-0  19008-3 0  9998
2 42824  51.6362 343.2756 0003918  97.5743 262.5700 15.70533496 65502
CORVUS BC2              
1 42846U 17042X   18242.52347540  .00000218  00000-0  26956-4 0  9998
2 42846  97.5892 142.6851 0008529 316.2522  43.8021 14.91849064 61458
CORVUS BC1              
1 42847U 17042Y   18242.49622489  .00000082  00000-0  13440-4 0  9996
2 42847  97.5891 142.7193 0008192 316.2641  43.7928 14.91948543 61442
